{"fetched_at":"2026-07-16T06:43:12.625Z","source":"https://celestrak.org/NORAD/elements/gp.php?NAME=PLEIADES&FORMAT=JSON","constellation":"pleiades","records":[{"OBJECT_NAME":"PLEIADES 1A","OBJECT_ID":"2011-076F","EPOCH":"2026-07-15T22:38:27.708000","CLASSIFICATION_TYPE":"U","MEAN_MOTION":14.58546526,"ECCENTRICITY":0.00016691,"INCLINATION":98.1974,"RA_OF_ASC_NODE":271.6583,"ARG_OF_PERICENTER":78.9308,"MEAN_ANOMALY":8.1191,"EPHEMERIS_TYPE":0,"NORAD_CAT_ID":38012,"ELEMENT_SET_NO":999,"REV_AT_EPOCH":77618,"BSTAR":0.000011330372,"MEAN_MOTION_DOT":7e-8,"MEAN_MOTION_DDOT":0},{"OBJECT_NAME":"PLEIADES 1B","OBJECT_ID":"2012-068A","EPOCH":"2026-07-15T23:03:32.110848","CLASSIFICATION_TYPE":"U","MEAN_MOTION":14.58533542,"ECCENTRICITY":0.00015742,"INCLINATION":98.1946,"RA_OF_ASC_NODE":271.6146,"ARG_OF_PERICENTER":78.9052,"MEAN_ANOMALY":281.2324,"EPHEMERIS_TYPE":0,"NORAD_CAT_ID":39019,"ELEMENT_SET_NO":999,"REV_AT_EPOCH":72504,"BSTAR":-0.000022265962,"MEAN_MOTION_DOT":-0.00000149,"MEAN_MOTION_DDOT":0}]}
